[Satellite]
VERSION=1.1
NAME=SPACEWAY 3
NICKNAME=SPACEWAY 3
TLE1=1 32018U 07036A   17186.19979750 -.00000156  00000-0  00000-0 0  9993
TLE2=2 32018   0.0303 159.0216 0000228 326.4332 134.8908  1.00272867 13810
